{
  "norad_id": 56034,
  "name": "STARLINK-5782",
  "history": [
    {
      "epoch": "2026-03-28T20:00:01.999872Z",
      "apogee_km": 497.860378339009,
      "perigee_km": 495.15149403643227,
      "latitude_deg": -11.537854409005408,
      "longitude_deg": 158.27585631773306,
      "height_km": 498.57232759856737,
      "semi_major_axis_km": 6874.64293618772,
      "eccentricity": 0.00019702,
      "inclination_deg": 42.9993,
      "raan_deg": 297.107,
      "arg_perigee_deg": 249.6775,
      "mean_anomaly_deg": 93.4267,
      "mean_motion_rev_day": 15.2309693
    },
    {
      "epoch": "2026-03-29T04:00:01.999584Z",
      "apogee_km": 496.7420749545563,
      "perigee_km": 494.0531482145043,
      "latitude_deg": 8.644841883205771,
      "longitude_deg": 57.98252389946736,
      "height_km": 494.78101960483826,
      "semi_major_axis_km": 6873.53461158453,
      "eccentricity": 0.0001956,
      "inclination_deg": 42.999,
      "raan_deg": 295.2361,
      "arg_perigee_deg": 269.1017,
      "mean_anomaly_deg": 103.6168,
      "mean_motion_rev_day": 15.23465333
    }
  ]
}